NORAD_CAT_ID,OBJECT_NAME,OBJECT_TYPE,EPOCH,MEAN_MOTION,ECCENTRICITY,INCLINATION,RA_OF_ASC_NODE,ARG_OF_PERICENTER,MEAN_ANOMALY,BSTAR,MEAN_MOTION_DOT,MEAN_MOTION_DDOT,TLE_LINE0,TLE_LINE1,TLE_LINE2,SEMIMAJOR_AXIS,PERIOD,APOGEE,PERIGEE,DECAYED
53846.0,STARLINK-4746,PAYLOAD,2023-11-20 13:30:30,15.08836498,0.000137,53.2168,105.4101,91.4629,268.6521,4.2231e-05,3.84e-06,0.0,0 STARLINK-4746,1 53846U 22114AE  23324.56285620  .00000384  00000-0  42231-4 0  9995,2 53846  53.2168 105.4101 0001370  91.4629 268.6521 15.08836498 66146,6917.891,95.438,540.704,538.808,0.0
53846.0,STARLINK-4746,PAYLOAD,2023-11-20 16:41:16,15.08839403,0.0001359,53.2169,104.8156,91.8248,268.29,5.986e-05,6.65e-06,0.0,0 STARLINK-4746,1 53846U 22114AE  23324.69533406  .00000665  00000-0  59860-4 0  9995,2 53846  53.2169 104.8156 0001359  91.8248 268.2900 15.08839403 66166,6917.882,95.438,540.687,538.807,0.0
53846.0,STARLINK-4746,PAYLOAD,2023-11-21 13:21:17,15.08842884,0.0001302,53.2173,100.9501,93.0145,267.0996,6.7708e-05,7.9e-06,0.0,0 STARLINK-4746,1 53846U 22114AE  23325.55645283  .00000790  00000-0  67708-4 0  9997,2 53846  53.2173 100.9501 0001302  93.0145 267.0996 15.08842884 66293,6917.872,95.437,540.637,538.836,0.0
53846.0,STARLINK-4746,PAYLOAD,2023-11-21 18:07:26,15.08848811,0.0001341,53.2175,100.0582,93.5606,266.554,0.00011786,1.589e-05,0.0,0 STARLINK-4746,1 53846U 22114AE  23325.75516742  .00001589  00000-0  11786-3 0  9997,2 53846  53.2175 100.0582 0001341  93.5606 266.5540 15.08848811 66324,6917.853,95.437,540.646,538.791,0.0
53846.0,STARLINK-4746,PAYLOAD,2023-11-22 08:25:55,15.08839874,0.0001353,53.2186,97.3815,89.1028,271.0119,0.00012412,1.688e-05,0.0,0 STARLINK-4746,1 53846U 22114AE  23326.35133217  .00001688  00000-0  12412-3 0  9993,2 53846  53.2186  97.3815 0001353  89.1028 271.0119 15.08839874 65876,6917.881,95.438,540.682,538.81,0.0
53846.0,STARLINK-4746,PAYLOAD,2023-11-22 13:12:04,15.08848071,0.0001486,53.2187,96.4896,89.7845,270.3317,7.7949e-05,9.53e-06,0.0,0 STARLINK-4746,1 53846U 22114AE  23326.55004768  .00000953  00000-0  77949-4 0  9994,2 53846  53.2187  96.4896 0001486  89.7845 270.3317 15.08848071 66441,6917.856,95.437,540.749,538.693,0.0
53846.0,STARLINK-4746,PAYLOAD,2023-11-22 16:22:50,15.08851838,0.0001535,53.2176,95.8949,85.4819,274.6348,0.00013244,1.821e-05,0.0,0 STARLINK-4746,1 53846U 22114AE  23326.68252407  .00001821  00000-0  13244-3 0  9995,2 53846  53.2176  95.8949 0001535  85.4819 274.6348 15.08851838 65928,6917.844,95.437,540.771,538.647,0.0
53846.0,STARLINK-4746,PAYLOAD,2023-11-23 08:16:42,15.08836372,0.0001596,53.2192,92.9215,97.8362,262.2812,-3.7066e-05,-8.78e-06,0.0,0 STARLINK-4746,1 53846U 22114AE  23327.34493923 -.00000878  00000-0 -37066-4 0  9991,2 53846  53.2192  92.9215 0001596  97.8362 262.2812 15.08836372 66024,6917.891,95.438,540.861,538.652,0.0
53846.0,STARLINK-4746,PAYLOAD,2023-11-23 13:02:52,15.08835216,0.0001539,53.2193,92.0294,97.1013,263.0155,-4.439e-05,-9.94e-06,0.0,0 STARLINK-4746,1 53846U 22114AE  23327.54366063 -.00000994  00000-0 -44390-4 0  9994,2 53846  53.2193  92.0294 0001539  97.1013 263.0155 15.08835216 66593,6917.895,95.438,540.825,538.695,0.0
53846.0,STARLINK-4746,PAYLOAD,2023-11-23 16:13:38,15.08837762,0.0001551,53.2186,91.4339,95.5603,264.5566,-3.339e-05,-8.19e-06,0.0,0 STARLINK-4746,1 53846U 22114AE  23327.67613896 -.00000819  00000-0 -33390-4 0  9991,2 53846  53.2186  91.4339 0001551  95.5603 264.5566 15.08837762 66612,6917.887,95.438,540.825,538.679,0.0
53846.0,STARLINK-4746,PAYLOAD,2023-11-24 14:29:02,15.08841575,0.0001727,53.2182,87.2721,78.9455,281.1731,7.5136e-06,-1.69e-06,0.0,0 STARLINK-4746,1 53846U 22114AE  23328.60350003 -.00000169  00000-0  75136-5 0  9995,2 53846  53.2182  87.2721 0001727  78.9455 281.1731 15.08841575 66752,6917.876,95.437,540.935,538.546,0.0
53846.0,STARLINK-4746,PAYLOAD,2023-11-24 16:04:25,15.08846526,0.0001611,53.2179,86.9734,80.9601,279.1574,3.5276e-05,2.74e-06,0.0,0 STARLINK-4746,1 53846U 22114AE  23328.66973531  .00000274  00000-0  35276-4 0  9994,2 53846  53.2179  86.9734 0001611  80.9601 279.1574 15.08846526 66221,6917.86,95.437,540.84,538.611,0.0
53846.0,STARLINK-4746,PAYLOAD,2023-11-25 14:19:48,15.08847983,0.0001609,53.2181,82.8113,88.7748,271.3429,0.00024235,3.572e-05,0.0,0 STARLINK-4746,1 53846U 22114AE  23329.59709294  .00003572  00000-0  24235-3 0  9996,2 53846  53.2181  82.8113 0001609  88.7748 271.3429 15.08847983 66901,6917.856,95.437,540.834,538.608,0.0
53846.0,STARLINK-4746,PAYLOAD,2023-11-26 10:59:49,15.08856955,0.0001754,53.2189,78.9453,104.3823,255.7364,0.00021978,3.213e-05,0.0,0 STARLINK-4746,1 53846U 22114AE  23330.45820781  .00003213  00000-0  21978-3 0  9991,2 53846  53.2189  78.9453 0001754 104.3823 255.7364 15.08856955 66499,6917.829,95.436,540.907,538.48,0.0
53846.0,STARLINK-4746,PAYLOAD,2023-11-26 14:10:35,15.08860243,0.0001612,53.2181,78.3482,94.2692,265.8484,0.0002145,3.129e-05,0.0,0 STARLINK-4746,1 53846U 22114AE  23330.59068495  .00003129  00000-0  21450-3 0  9993,2 53846  53.2181  78.3482 0001612  94.2692 265.8484 15.08860243 67054,6917.819,95.436,540.799,538.568,0.0
53846.0,STARLINK-4746,PAYLOAD,2023-11-26 17:21:21,15.08863912,0.0001524,53.2176,77.7519,96.4682,263.6483,0.00025439,3.766e-05,0.0,0 STARLINK-4746,1 53846U 22114AE  23330.72316100  .00003766  00000-0  25439-3 0  9995,2 53846  53.2176  77.7519 0001524  96.4682 263.6483 15.08863912 67070,6917.807,95.436,540.727,538.618,0.0
53846.0,STARLINK-4746,PAYLOAD,2023-11-27 12:26:00,15.08821638,0.0001713,53.2183,74.1869,100.1711,259.9474,-0.00035644,-5.953e-05,0.0,0 STARLINK-4746,1 53846U 22114AE  23331.51806607 -.00005953  00000-0 -35644-3 0  9990,2 53846  53.2183  74.1869 0001713 100.1711 259.9474 15.08821638 66653,6917.937,95.439,540.987,538.616,0.0
53846.0,STARLINK-4746,PAYLOAD,2023-11-27 14:01:24,15.0882327,0.00017,53.2185,73.8891,101.7129,258.4054,-0.00032486,-5.452e-05,0.0,0 STARLINK-4746,1 53846U 22114AE  23331.58430573 -.00005452  00000-0 -32486-3 0  9997,2 53846  53.2185  73.8891 0001700 101.7129 258.4054 15.08823270 67206,6917.932,95.439,540.973,538.62,0.0
53846.0,STARLINK-4746,PAYLOAD,2023-11-28 12:16:47,15.08840411,0.0001638,53.2182,69.7224,82.2474,277.8704,-5.277e-06,-3.72e-06,0.0,0 STARLINK-4746,1 53846U 22114AE  23332.51165868 -.00000372  00000-0 -52770-5 0  9999,2 53846  53.2182  69.7224 0001638  82.2474 277.8704 15.08840411 66801,6917.879,95.438,540.877,538.611,0.0
53846.0,STARLINK-4746,PAYLOAD,2023-11-28 13:52:09,15.0885409,0.0001525,53.218,69.4259,85.5998,274.5168,0.0001994,2.888e-05,0.0,0 STARLINK-4746,1 53846U 22114AE  23332.57789323  .00002888  00000-0  19940-3 0  9995,2 53846  53.2180  69.4259 0001525  85.5998 274.5168 15.08854090 67353,6917.837,95.437,540.757,538.647,0.0
53846.0,STARLINK-4746,PAYLOAD,2023-11-29 12:07:35,15.08836344,0.0001627,53.2191,65.2681,86.2616,273.8562,0.00024334,3.586e-05,0.0,0 STARLINK-4746,1 53846U 22114AE  23333.50526739  .00003586  00000-0  24334-3 0  9998,2 53846  53.2191  65.2681 0001627  86.2616 273.8562 15.08836344 66953,6917.892,95.438,540.882,538.631,0.0
53846.0,STARLINK-4746,PAYLOAD,2023-11-29 13:42:58,15.08839261,0.0001831,53.2183,64.9674,67.1957,292.9229,0.00029737,4.448e-05,0.0,0 STARLINK-4746,1 53846U 22114AE  23333.57150944  .00004448  00000-0  29737-3 0  9996,2 53846  53.2183  64.9674 0001831  67.1957 292.9229 15.08839261 67500,6917.883,95.438,541.014,538.481,0.0
53846.0,STARLINK-4746,PAYLOAD,2023-12-01 05:27:36,15.0884111,0.000166,53.2183,57.5412,71.3925,288.7247,-4.9961e-06,-3.68e-06,0.0,0 STARLINK-4746,1 53846U 22114AE  23335.22750801 -.00000368  00000-0 -49961-5 0  9990,2 53846  53.2183  57.5412 0001660  71.3925 288.7247 15.08841110 67217,6917.877,95.437,540.89,538.594,0.0
53846.0,STARLINK-4746,PAYLOAD,2023-12-01 11:49:09,15.0884283,0.0001734,53.2193,56.3505,72.6553,287.4629,4.477e-05,4.25e-06,0.0,0 STARLINK-4746,1 53846U 22114AE  23335.49247050  .00000425  00000-0  44770-4 0  9990,2 53846  53.2193  56.3505 0001734  72.6553 287.4629 15.08842830 67794,6917.872,95.437,540.936,538.537,0.0
53846.0,STARLINK-4746,PAYLOAD,2023-12-02 11:39:56,15.08817438,0.0001376,53.2182,51.8889,92.0266,268.0884,-0.0004289,-7.103e-05,0.0,0 STARLINK-4746,1 53846U 22114AE  23336.48607233 -.00007103  00000-0 -42890-3 0  9995,2 53846  53.2182  51.8889 0001376  92.0266 268.0884 15.08817438 67408,6917.949,95.439,540.766,538.862,0.0
53846.0,STARLINK-4746,PAYLOAD,2023-12-03 11:30:45,15.08812111,0.0001368,53.2188,47.4254,98.7737,261.341,-0.00026208,-4.453e-05,0.0,0 STARLINK-4746,1 53846U 22114AE  23337.47968975 -.00004453  00000-0 -26208-3 0  9998,2 53846  53.2188  47.4254 0001368  98.7737 261.3410 15.08812111 68098,6917.966,95.439,540.777,538.884,0.0
53846.0,STARLINK-4746,PAYLOAD,2023-12-04 11:21:31,15.08853982,0.0001051,53.2178,42.9629,88.7129,271.3984,0.00064623,0.00010016,0.0,0 STARLINK-4746,1 53846U 22114AE  23338.47328404  .00010016  00000-0  64623-3 0  9999,2 53846  53.2178  42.9629 0001051  88.7129 271.3984 15.08853982 67701,6917.838,95.437,540.43,538.976,0.0
53846.0,STARLINK-4746,PAYLOAD,2023-12-05 11:12:17,15.08857198,0.0001126,53.2186,38.5001,90.0895,270.0226,0.00045494,6.963e-05,0.0,0 STARLINK-4746,1 53846U 22114AE  23339.46687479  .00006963  00000-0  45494-3 0  9990,2 53846  53.2186  38.5001 0001126  90.0895 270.0226 15.08857198 67858,6917.828,95.436,540.472,538.914,0.0
53846.0,STARLINK-4746,PAYLOAD,2023-12-06 03:06:09,15.08852152,0.0001153,53.2176,35.5298,76.813,283.2991,-0.00013609,-2.454e-05,0.0,0 STARLINK-4746,1 53846U 22114AE  23340.12927197 -.00002454  00000-0 -13609-3 0  9995,2 53846  53.2176  35.5298 0001153  76.8130 283.2991 15.08852152 67957,6917.843,95.437,540.506,538.911,0.0
53846.0,STARLINK-4746,PAYLOAD,2023-12-06 09:27:41,15.08852105,0.0001109,53.2183,34.3405,82.3286,277.7832,-3.011e-05,-7.67e-06,0.0,0 STARLINK-4746,1 53846U 22114AE  23340.39423577 -.00000767  00000-0 -30110-4 0  9999,2 53846  53.2183  34.3405 0001109  82.3286 277.7832 15.08852105 68532,6917.843,95.437,540.476,538.941,0.0
